<?xml version="1.0" encoding="UTF-8"?>
<ndm xmlns:xsi="http://www.w3.org/2001/XMLSchema-instance" xsi:noNamespaceSchemaLocation="https://sanaregistry.org/r/ndmxml_unqualified/ndmxml-2.0.0-master-2.0.xsd">
<omm id="CCSDS_OMM_VERS" version="2.0">
<header><CREATION_DATE/><ORIGINATOR/></header><body><segment><metadata><OBJECT_NAME>ORBCOMM FM20</OBJECT_NAME><OBJECT_ID>1998-046D</OBJECT_ID><CENTER_NAME>EARTH</CENTER_NAME><REF_FRAME>TEME</REF_FRAME><TIME_SYSTEM>UTC</TIME_SYSTEM><MEAN_ELEMENT_THEORY>SGP4</MEAN_ELEMENT_THEORY></metadata><data><meanElements><EPOCH>2025-01-18T20:26:01.064544</EPOCH><MEAN_MOTION>14.36620918</MEAN_MOTION><ECCENTRICITY>.0001811</ECCENTRICITY><INCLINATION>44.9924</INCLINATION><RA_OF_ASC_NODE>168.2084</RA_OF_ASC_NODE><ARG_OF_PERICENTER>206.5317</ARG_OF_PERICENTER><MEAN_ANOMALY>153.5438</MEAN_ANOMALY></meanElements><tleParameters><EPHEMERIS_TYPE>0</EPHEMERIS_TYPE><CLASSIFICATION_TYPE>U</CLASSIFICATION_TYPE><NORAD_CAT_ID>25416</NORAD_CAT_ID><ELEMENT_SET_NO>999</ELEMENT_SET_NO><REV_AT_EPOCH>38278</REV_AT_EPOCH><BSTAR>.7698E-3</BSTAR><MEAN_MOTION_DOT>.2144E-4</MEAN_MOTION_DOT><MEAN_MOTION_DDOT>0</MEAN_MOTION_DDOT></tleParameters></data></segment></body></omm>
<omm id="CCSDS_OMM_VERS" version="2.0">
<header><CREATION_DATE/><ORIGINATOR/></header><body><segment><metadata><OBJECT_NAME>ORBCOMM FM16</OBJECT_NAME><OBJECT_ID>1998-046E</OBJECT_ID><CENTER_NAME>EARTH</CENTER_NAME><REF_FRAME>TEME</REF_FRAME><TIME_SYSTEM>UTC</TIME_SYSTEM><MEAN_ELEMENT_THEORY>SGP4</MEAN_ELEMENT_THEORY></metadata><data><meanElements><EPOCH>2025-01-19T12:00:27.766368</EPOCH><MEAN_MOTION>14.38088919</MEAN_MOTION><ECCENTRICITY>.0005262</ECCENTRICITY><INCLINATION>44.9922</INCLINATION><RA_OF_ASC_NODE>158.5473</RA_OF_ASC_NODE><ARG_OF_PERICENTER>249.0115</ARG_OF_PERICENTER><MEAN_ANOMALY>111.0171</MEAN_ANOMALY></meanElements><tleParameters><EPHEMERIS_TYPE>0</EPHEMERIS_TYPE><CLASSIFICATION_TYPE>U</CLASSIFICATION_TYPE><NORAD_CAT_ID>25417</NORAD_CAT_ID><ELEMENT_SET_NO>999</ELEMENT_SET_NO><REV_AT_EPOCH>38306</REV_AT_EPOCH><BSTAR>.11398E-2</BSTAR><MEAN_MOTION_DOT>.3346E-4</MEAN_MOTION_DOT><MEAN_MOTION_DDOT>0</MEAN_MOTION_DDOT></tleParameters></data></segment></body></omm>
<omm id="CCSDS_OMM_VERS" version="2.0">
<header><CREATION_DATE/><ORIGINATOR/></header><body><segment><metadata><OBJECT_NAME>ORBCOMM FM15</OBJECT_NAME><OBJECT_ID>1998-046F</OBJECT_ID><CENTER_NAME>EARTH</CENTER_NAME><REF_FRAME>TEME</REF_FRAME><TIME_SYSTEM>UTC</TIME_SYSTEM><MEAN_ELEMENT_THEORY>SGP4</MEAN_ELEMENT_THEORY></metadata><data><meanElements><EPOCH>2025-01-18T16:14:40.644384</EPOCH><MEAN_MOTION>14.37762121</MEAN_MOTION><ECCENTRICITY>.0004682</ECCENTRICITY><INCLINATION>44.9953</INCLINATION><RA_OF_ASC_NODE>167.1680</RA_OF_ASC_NODE><ARG_OF_PERICENTER>245.4173</ARG_OF_PERICENTER><MEAN_ANOMALY>114.6188</MEAN_ANOMALY></meanElements><tleParameters><EPHEMERIS_TYPE>0</EPHEMERIS_TYPE><CLASSIFICATION_TYPE>U</CLASSIFICATION_TYPE><NORAD_CAT_ID>25418</NORAD_CAT_ID><ELEMENT_SET_NO>999</ELEMENT_SET_NO><REV_AT_EPOCH>38272</REV_AT_EPOCH><BSTAR>.96269E-3</BSTAR><MEAN_MOTION_DOT>.2784E-4</MEAN_MOTION_DOT><MEAN_MOTION_DDOT>0</MEAN_MOTION_DDOT></tleParameters></data></segment></body></omm>
<omm id="CCSDS_OMM_VERS" version="2.0">
<header><CREATION_DATE/><ORIGINATOR/></header><body><segment><metadata><OBJECT_NAME>ORBCOMM FM14</OBJECT_NAME><OBJECT_ID>1998-046G</OBJECT_ID><CENTER_NAME>EARTH</CENTER_NAME><REF_FRAME>TEME</REF_FRAME><TIME_SYSTEM>UTC</TIME_SYSTEM><MEAN_ELEMENT_THEORY>SGP4</MEAN_ELEMENT_THEORY></metadata><data><meanElements><EPOCH>2025-01-18T19:10:42.666816</EPOCH><MEAN_MOTION>14.38064736</MEAN_MOTION><ECCENTRICITY>.0003911</ECCENTRICITY><INCLINATION>44.9944</INCLINATION><RA_OF_ASC_NODE>165.2254</RA_OF_ASC_NODE><ARG_OF_PERICENTER>233.3791</ARG_OF_PERICENTER><MEAN_ANOMALY>126.6698</MEAN_ANOMALY></meanElements><tleParameters><EPHEMERIS_TYPE>0</EPHEMERIS_TYPE><CLASSIFICATION_TYPE>U</CLASSIFICATION_TYPE><NORAD_CAT_ID>25419</NORAD_CAT_ID><ELEMENT_SET_NO>999</ELEMENT_SET_NO><REV_AT_EPOCH>38270</REV_AT_EPOCH><BSTAR>.98219E-3</BSTAR><MEAN_MOTION_DOT>.2861E-4</MEAN_MOTION_DOT><MEAN_MOTION_DDOT>0</MEAN_MOTION_DDOT></tleParameters></data></segment></body></omm>
<omm id="CCSDS_OMM_VERS" version="2.0">
<header><CREATION_DATE/><ORIGINATOR/></header><body><segment><metadata><OBJECT_NAME>ORBCOMM FM13</OBJECT_NAME><OBJECT_ID>1998-046H</OBJECT_ID><CENTER_NAME>EARTH</CENTER_NAME><REF_FRAME>TEME</REF_FRAME><TIME_SYSTEM>UTC</TIME_SYSTEM><MEAN_ELEMENT_THEORY>SGP4</MEAN_ELEMENT_THEORY></metadata><data><meanElements><EPOCH>2025-01-19T10:00:16.913952</EPOCH><MEAN_MOTION>14.36992818</MEAN_MOTION><ECCENTRICITY>.000583</ECCENTRICITY><INCLINATION>44.9956</INCLINATION><RA_OF_ASC_NODE>168.9099</RA_OF_ASC_NODE><ARG_OF_PERICENTER>237.0754</ARG_OF_PERICENTER><MEAN_ANOMALY>122.9533</MEAN_ANOMALY></meanElements><tleParameters><EPHEMERIS_TYPE>0</EPHEMERIS_TYPE><CLASSIFICATION_TYPE>U</CLASSIFICATION_TYPE><NORAD_CAT_ID>25420</NORAD_CAT_ID><ELEMENT_SET_NO>999</ELEMENT_SET_NO><REV_AT_EPOCH>38296</REV_AT_EPOCH><BSTAR>.94082E-3</BSTAR><MEAN_MOTION_DOT>.2674E-4</MEAN_MOTION_DOT><MEAN_MOTION_DDOT>0</MEAN_MOTION_DDOT></tleParameters></data></segment></body></omm>
<omm id="CCSDS_OMM_VERS" version="2.0">
<header><CREATION_DATE/><ORIGINATOR/></header><body><segment><metadata><OBJECT_NAME>ORBCOMM FM21</OBJECT_NAME><OBJECT_ID>1998-053A</OBJECT_ID><CENTER_NAME>EARTH</CENTER_NAME><REF_FRAME>TEME</REF_FRAME><TIME_SYSTEM>UTC</TIME_SYSTEM><MEAN_ELEMENT_THEORY>SGP4</MEAN_ELEMENT_THEORY></metadata><data><meanElements><EPOCH>2025-01-19T01:05:45.487104</EPOCH><MEAN_MOTION>14.36770150</MEAN_MOTION><ECCENTRICITY>.0000654</ECCENTRICITY><INCLINATION>45.0076</INCLINATION><RA_OF_ASC_NODE>255.4986</RA_OF_ASC_NODE><ARG_OF_PERICENTER>154.2280</ARG_OF_PERICENTER><MEAN_ANOMALY>205.8601</MEAN_ANOMALY></meanElements><tleParameters><EPHEMERIS_TYPE>0</EPHEMERIS_TYPE><CLASSIFICATION_TYPE>U</CLASSIFICATION_TYPE><NORAD_CAT_ID>25475</NORAD_CAT_ID><ELEMENT_SET_NO>999</ELEMENT_SET_NO><REV_AT_EPOCH>37612</REV_AT_EPOCH><BSTAR>.64459E-3</BSTAR><MEAN_MOTION_DOT>.1778E-4</MEAN_MOTION_DOT><MEAN_MOTION_DDOT>0</MEAN_MOTION_DDOT></tleParameters></data></segment></body></omm>
<omm id="CCSDS_OMM_VERS" version="2.0">
<header><CREATION_DATE/><ORIGINATOR/></header><body><segment><metadata><OBJECT_NAME>ORBCOMM FM22</OBJECT_NAME><OBJECT_ID>1998-053B</OBJECT_ID><CENTER_NAME>EARTH</CENTER_NAME><REF_FRAME>TEME</REF_FRAME><TIME_SYSTEM>UTC</TIME_SYSTEM><MEAN_ELEMENT_THEORY>SGP4</MEAN_ELEMENT_THEORY></metadata><data><meanElements><EPOCH>2025-01-18T16:42:22.717728</EPOCH><MEAN_MOTION>14.37624919</MEAN_MOTION><ECCENTRICITY>.0002509</ECCENTRICITY><INCLINATION>45.0059</INCLINATION><RA_OF_ASC_NODE>253.1190</RA_OF_ASC_NODE><ARG_OF_PERICENTER>176.5592</ARG_OF_PERICENTER><MEAN_ANOMALY>183.5274</MEAN_ANOMALY></meanElements><tleParameters><EPHEMERIS_TYPE>0</EPHEMERIS_TYPE><CLASSIFICATION_TYPE>U</CLASSIFICATION_TYPE><NORAD_CAT_ID>25476</NORAD_CAT_ID><ELEMENT_SET_NO>999</ELEMENT_SET_NO><REV_AT_EPOCH>37575</REV_AT_EPOCH><BSTAR>.70462E-3</BSTAR><MEAN_MOTION_DOT>.1993E-4</MEAN_MOTION_DOT><MEAN_MOTION_DDOT>0</MEAN_MOTION_DDOT></tleParameters></data></segment></body></omm>
<omm id="CCSDS_OMM_VERS" version="2.0">
<header><CREATION_DATE/><ORIGINATOR/></header><body><segment><metadata><OBJECT_NAME>ORBCOMM FM23</OBJECT_NAME><OBJECT_ID>1998-053C</OBJECT_ID><CENTER_NAME>EARTH</CENTER_NAME><REF_FRAME>TEME</REF_FRAME><TIME_SYSTEM>UTC</TIME_SYSTEM><MEAN_ELEMENT_THEORY>SGP4</MEAN_ELEMENT_THEORY></metadata><data><meanElements><EPOCH>2025-01-19T01:29:47.065056</EPOCH><MEAN_MOTION>14.36887621</MEAN_MOTION><ECCENTRICITY>.0001579</ECCENTRICITY><INCLINATION>45.0077</INCLINATION><RA_OF_ASC_NODE>257.7193</RA_OF_ASC_NODE><ARG_OF_PERICENTER>171.8092</ARG_OF_PERICENTER><MEAN_ANOMALY>188.2782</MEAN_ANOMALY></meanElements><tleParameters><EPHEMERIS_TYPE>0</EPHEMERIS_TYPE><CLASSIFICATION_TYPE>U</CLASSIFICATION_TYPE><NORAD_CAT_ID>25477</NORAD_CAT_ID><ELEMENT_SET_NO>999</ELEMENT_SET_NO><REV_AT_EPOCH>37625</REV_AT_EPOCH><BSTAR>.63755E-3</BSTAR><MEAN_MOTION_DOT>.1761E-4</MEAN_MOTION_DOT><MEAN_MOTION_DDOT>0</MEAN_MOTION_DDOT></tleParameters></data></segment></body></omm>

</ndm>
