ORBCOMM FM20            
1 25416U 98046D   25018.85140121  .00002144  00000+0  76980-3 0  9996
2 25416  44.9924 168.2084 0001811 206.5317 153.5438 14.36620918382783
ORBCOMM FM16            
1 25417U 98046E   25019.50032137  .00003346  00000+0  11398-2 0  9993
2 25417  44.9922 158.5473 0005262 249.0115 111.0171 14.38088919383064
ORBCOMM FM15            
1 25418U 98046F   25018.67685931  .00002784  00000+0  96269-3 0  9993
2 25418  44.9953 167.1680 0004682 245.4173 114.6188 14.37762121382726
ORBCOMM FM14            
1 25419U 98046G   25018.79910494  .00002861  00000+0  98219-3 0  9995
2 25419  44.9944 165.2254 0003911 233.3791 126.6698 14.38064736382704
ORBCOMM FM13            
1 25420U 98046H   25019.41686243  .00002674  00000+0  94082-3 0  9995
2 25420  44.9956 168.9099 0005830 237.0754 122.9533 14.36992818382962
ORBCOMM FM21            
1 25475U 98053A   25019.04566536  .00001778  00000+0  64459-3 0  9993
2 25475  45.0076 255.4986 0000654 154.2280 205.8601 14.36770150376128
ORBCOMM FM22            
1 25476U 98053B   25018.69609627  .00001993  00000+0  70462-3 0  9993
2 25476  45.0059 253.1190 0002509 176.5592 183.5274 14.37624919375754
ORBCOMM FM23            
1 25477U 98053C   25019.06235029  .00001761  00000+0  63755-3 0  9997
2 25477  45.0077 257.7193 0001579 171.8092 188.2782 14.36887621376259
